[{"OBJECT_NAME":"STARLINK-31250","OBJECT_ID":"2024-017P","EPOCH":"2025-10-12T01:09:02.153376","MEAN_MOTION":15.39632619,"ECCENTRICITY":0.00012604,"INCLINATION":53.1589,"RA_OF_ASC_NODE":165.1485,"ARG_OF_PERICENTER":87.0848,"MEAN_ANOMALY":273.0301,"EPHEMERIS_TYPE":0,"CLASSIFICATION_TYPE":"U","NORAD_CAT_ID":58839,"ELEMENT_SET_NO":999,"REV_AT_EPOCH":9738,"BSTAR":-1.2650136e-5,"MEAN_MOTION_DOT":-9.05e-6,"MEAN_MOTION_DDOT":0},{"OBJECT_NAME":"STARLINK-31248","OBJECT_ID":"2024-017Q","EPOCH":"2025-10-12T03:05:41.409600","MEAN_MOTION":15.30207635,"ECCENTRICITY":0.00011247,"INCLINATION":53.1601,"RA_OF_ASC_NODE":186.9327,"ARG_OF_PERICENTER":87.5,"MEAN_ANOMALY":272.613,"EPHEMERIS_TYPE":0,"CLASSIFICATION_TYPE":"U","NORAD_CAT_ID":58840,"ELEMENT_SET_NO":999,"REV_AT_EPOCH":9724,"BSTAR":0.00013091723,"MEAN_MOTION_DOT":3.521e-5,"MEAN_MOTION_DDOT":0},{"OBJECT_NAME":"STARLINK-31236","OBJECT_ID":"2024-017R","EPOCH":"2025-10-11T10:34:23.774880","MEAN_MOTION":15.30194731,"ECCENTRICITY":0.0001292,"INCLINATION":53.1606,"RA_OF_ASC_NODE":177.6977,"ARG_OF_PERICENTER":89.8202,"MEAN_ANOMALY":270.2947,"EPHEMERIS_TYPE":0,"CLASSIFICATION_TYPE":"U","NORAD_CAT_ID":58841,"ELEMENT_SET_NO":999,"REV_AT_EPOCH":9720,"BSTAR":5.4644979e-5,"MEAN_MOTION_DOT":1.259e-5,"MEAN_MOTION_DDOT":0},{"OBJECT_NAME":"STARLINK-31228","OBJECT_ID":"2024-017S","EPOCH":"2025-10-12T02:10:21.944064","MEAN_MOTION":15.30191711,"ECCENTRICITY":0.00014967,"INCLINATION":53.1596,"RA_OF_ASC_NODE":174.6443,"ARG_OF_PERICENTER":86.8609,"MEAN_ANOMALY":273.2563,"EPHEMERIS_TYPE":0,"CLASSIFICATION_TYPE":"U","NORAD_CAT_ID":58842,"ELEMENT_SET_NO":999,"REV_AT_EPOCH":9730,"BSTAR":5.361697e-5,"MEAN_MOTION_DOT":1.229e-5,"MEAN_MOTION_DDOT":0},{"OBJECT_NAME":"STARLINK-31280","OBJECT_ID":"2024-017T","EPOCH":"2025-10-12T02:19:27.849504","MEAN_MOTION":15.30238886,"ECCENTRICITY":0.00010799,"INCLINATION":53.1612,"RA_OF_ASC_NODE":174.6824,"ARG_OF_PERICENTER":85.4038,"MEAN_ANOMALY":274.7086,"EPHEMERIS_TYPE":0,"CLASSIFICATION_TYPE":"U","NORAD_CAT_ID":58843,"ELEMENT_SET_NO":999,"REV_AT_EPOCH":9730,"BSTAR":-0.00025440452,"MEAN_MOTION_DOT":-7.895e-5,"MEAN_MOTION_DDOT":0},{"OBJECT_NAME":"STARLINK-31269","OBJECT_ID":"2024-017U","EPOCH":"2025-10-12T06:12:42.622560","MEAN_MOTION":15.30196235,"ECCENTRICITY":0.00017256,"INCLINATION":53.1608,"RA_OF_ASC_NODE":263.8923,"ARG_OF_PERICENTER":102.6014,"MEAN_ANOMALY":257.518,"EPHEMERIS_TYPE":0,"CLASSIFICATION_TYPE":"U","NORAD_CAT_ID":58844,"ELEMENT_SET_NO":999,"REV_AT_EPOCH":9604,"BSTAR":0.00013488022,"MEAN_MOTION_DOT":3.637e-5,"MEAN_MOTION_DDOT":0},{"OBJECT_NAME":"STARLINK-31264","OBJECT_ID":"2024-017V","EPOCH":"2025-10-12T04:59:45.477600","MEAN_MOTION":15.30213657,"ECCENTRICITY":0.00014285,"INCLINATION":53.1597,"RA_OF_ASC_NODE":263.5876,"ARG_OF_PERICENTER":86.7886,"MEAN_ANOMALY":273.3278,"EPHEMERIS_TYPE":0,"CLASSIFICATION_TYPE":"U","NORAD_CAT_ID":58845,"ELEMENT_SET_NO":999,"REV_AT_EPOCH":9604,"BSTAR":8.3978426e-5,"MEAN_MOTION_DOT":2.13e-5,"MEAN_MOTION_DDOT":0},{"OBJECT_NAME":"STARLINK-31273","OBJECT_ID":"2024-017W","EPOCH":"2025-10-11T23:15:55.994112","MEAN_MOTION":15.30199417,"ECCENTRICITY":8.724e-5,"INCLINATION":53.1586,"RA_OF_ASC_NODE":175.3102,"ARG_OF_PERICENTER":62.3344,"MEAN_ANOMALY":297.7745,"EPHEMERIS_TYPE":0,"CLASSIFICATION_TYPE":"U","NORAD_CAT_ID":58846,"ELEMENT_SET_NO":999,"REV_AT_EPOCH":9728,"BSTAR":6.7853736e-5,"MEAN_MOTION_DOT":1.651e-5,"MEAN_MOTION_DDOT":0},{"OBJECT_NAME":"STARLINK-31262","OBJECT_ID":"2024-017X","EPOCH":"2025-10-12T05:10:24.139488","MEAN_MOTION":15.30200734,"ECCENTRICITY":0.00014756,"INCLINATION":53.1607,"RA_OF_ASC_NODE":263.6302,"ARG_OF_PERICENTER":94.271,"MEAN_ANOMALY":265.846,"EPHEMERIS_TYPE":0,"CLASSIFICATION_TYPE":"U","NORAD_CAT_ID":58847,"ELEMENT_SET_NO":999,"REV_AT_EPOCH":9604,"BSTAR":2.1332264e-5,"MEAN_MOTION_DOT":2.73e-6,"MEAN_MOTION_DDOT":0},{"OBJECT_NAME":"STARLINK-31238","OBJECT_ID":"2024-019A","EPOCH":"2025-10-11T22:14:48.178464","MEAN_MOTION":15.27580407,"ECCENTRICITY":7.982e-5,"INCLINATION":43.0011,"RA_OF_ASC_NODE":8.8237,"ARG_OF_PERICENTER":266.9024,"MEAN_ANOMALY":93.1737,"EPHEMERIS_TYPE":0,"CLASSIFICATION_TYPE":"U","NORAD_CAT_ID":58853,"ELEMENT_SET_NO":999,"REV_AT_EPOCH":9633,"BSTAR":0.00010825705,"MEAN_MOTION_DOT":2.718e-5,"MEAN_MOTION_DDOT":0},{"OBJECT_NAME":"STARLINK-31158","OBJECT_ID":"2024-019B","EPOCH":"2025-10-12T06:37:02.112960","MEAN_MOTION":15.27586402,"ECCENTRICITY":0.00013436,"INCLINATION":43.0026,"RA_OF_ASC_NODE":7.1546,"ARG_OF_PERICENTER":262.4201,"MEAN_ANOMALY":97.6498,"EPHEMERIS_TYPE":0,"CLASSIFICATION_TYPE":"U","NORAD_CAT_ID":58854,"ELEMENT_SET_NO":999,"REV_AT_EPOCH":9638,"BSTAR":3.3803933e-5,"MEAN_MOTION_DOT":6.68e-6,"MEAN_MOTION_DDOT":0},{"OBJECT_NAME":"STARLINK-31237","OBJECT_ID":"2024-019C","EPOCH":"2025-10-12T05:58:11.012448","MEAN_MOTION":15.27588182,"ECCENTRICITY":5.974e-5,"INCLINATION":42.9984,"RA_OF_ASC_NODE":6.9693,"ARG_OF_PERICENTER":284.4882,"MEAN_ANOMALY":75.5904,"EPHEMERIS_TYPE":0,"CLASSIFICATION_TYPE":"U","NORAD_CAT_ID":58855,"ELEMENT_SET_NO":999,"REV_AT_EPOCH":9638,"BSTAR":-4.617417e-6,"MEAN_MOTION_DOT":-3.89e-6,"MEAN_MOTION_DDOT":0},{"OBJECT_NAME":"STARLINK-31244","OBJECT_ID":"2024-019D","EPOCH":"2025-10-11T22:31:26.923584","MEAN_MOTION":15.27596933,"ECCENTRICITY":0.00010758,"INCLINATION":43.0002,"RA_OF_ASC_NODE":8.9281,"ARG_OF_PERICENTER":255.0679,"MEAN_ANOMALY":105.0054,"EPHEMERIS_TYPE":0,"CLASSIFICATION_TYPE":"U","NORAD_CAT_ID":58856,"ELEMENT_SET_NO":999,"REV_AT_EPOCH":9633,"BSTAR":0.00022767321,"MEAN_MOTION_DOT":6.011e-5,"MEAN_MOTION_DDOT":0},{"OBJECT_NAME":"STARLINK-31226","OBJECT_ID":"2024-019F","EPOCH":"2025-10-12T06:44:26.330784","MEAN_MOTION":15.27590688,"ECCENTRICITY":6.982e-5,"INCLINATION":42.9998,"RA_OF_ASC_NODE":7.1916,"ARG_OF_PERICENTER":239.8766,"MEAN_ANOMALY":120.2017,"EPHEMERIS_TYPE":0,"CLASSIFICATION_TYPE":"U","NORAD_CAT_ID":58858,"ELEMENT_SET_NO":999,"REV_AT_EPOCH":9638,"BSTAR":7.1008305e-5,"MEAN_MOTION_DOT":1.693e-5,"MEAN_MOTION_DDOT":0},{"OBJECT_NAME":"STARLINK-31197","OBJECT_ID":"2024-019G","EPOCH":"2025-10-12T07:01:05.805120","MEAN_MOTION":15.2759481,"ECCENTRICITY":2.512e-5,"INCLINATION":42.9993,"RA_OF_ASC_NODE":7.2798,"ARG_OF_PERICENTER":199.5879,"MEAN_ANOMALY":160.4963,"EPHEMERIS_TYPE":0,"CLASSIFICATION_TYPE":"U","NORAD_CAT_ID":58859,"ELEMENT_SET_NO":999,"REV_AT_EPOCH":9638,"BSTAR":0.00021820361,"MEAN_MOTION_DOT":5.75e-5,"MEAN_MOTION_DDOT":0},{"OBJECT_NAME":"STARLINK-31213","OBJECT_ID":"2024-019H","EPOCH":"2025-10-12T06:24:05.689728","MEAN_MOTION":15.27594297,"ECCENTRICITY":3.714e-5,"INCLINATION":43.0004,"RA_OF_ASC_NODE":7.0896,"ARG_OF_PERICENTER":58.2466,"MEAN_ANOMALY":301.8422,"EPHEMERIS_TYPE":0,"CLASSIFICATION_TYPE":"U","NORAD_CAT_ID":58860,"ELEMENT_SET_NO":999,"REV_AT_EPOCH":9638,"BSTAR":2.0144805e-5,"MEAN_MOTION_DOT":2.93e-6,"MEAN_MOTION_DDOT":0},{"OBJECT_NAME":"STARLINK-31199","OBJECT_ID":"2024-019J","EPOCH":"2025-10-12T06:18:32.015520","MEAN_MOTION":15.27588581,"ECCENTRICITY":5.279e-5,"INCLINATION":42.9991,"RA_OF_ASC_NODE":7.0597,"ARG_OF_PERICENTER":8.1682,"MEAN_ANOMALY":351.9179,"EPHEMERIS_TYPE":0,"CLASSIFICATION_TYPE":"U","NORAD_CAT_ID":58861,"ELEMENT_SET_NO":999,"REV_AT_EPOCH":9638,"BSTAR":3.2963774e-5,"MEAN_MOTION_DOT":6.46e-6,"MEAN_MOTION_DDOT":0},{"OBJECT_NAME":"STARLINK-31200","OBJECT_ID":"2024-019K","EPOCH":"2025-10-12T06:20:23.403264","MEAN_MOTION":15.2759034,"ECCENTRICITY":0.00018129,"INCLINATION":43.0025,"RA_OF_ASC_NODE":7.063,"ARG_OF_PERICENTER":274.6855,"MEAN_ANOMALY":85.3789,"EPHEMERIS_TYPE":0,"CLASSIFICATION_TYPE":"U","NORAD_CAT_ID":58862,"ELEMENT_SET_NO":999,"REV_AT_EPOCH":9638,"BSTAR":9.9171596e-5,"MEAN_MOTION_DOT":2.468e-5,"MEAN_MOTION_DDOT":0},{"OBJECT_NAME":"STARLINK-31149","OBJECT_ID":"2024-019L","EPOCH":"2025-10-12T05:41:32.237088","MEAN_MOTION":15.27592867,"ECCENTRICITY":0.00016476,"INCLINATION":43.0043,"RA_OF_ASC_NODE":6.869,"ARG_OF_PERICENTER":262.1798,"MEAN_ANOMALY":97.8867,"EPHEMERIS_TYPE":0,"CLASSIFICATION_TYPE":"U","NORAD_CAT_ID":58863,"ELEMENT_SET_NO":999,"REV_AT_EPOCH":9638,"BSTAR":2.2609233e-5,"MEAN_MOTION_DOT":3.6e-6,"MEAN_MOTION_DDOT":0},{"OBJECT_NAME":"STARLINK-31242","OBJECT_ID":"2024-019M","EPOCH":"2025-10-11T22:38:51.078336","MEAN_MOTION":15.2759181,"ECCENTRICITY":0.00015125,"INCLINATION":43.0036,"RA_OF_ASC_NODE":8.963,"ARG_OF_PERICENTER":284.0247,"MEAN_ANOMALY":76.0436,"EPHEMERIS_TYPE":0,"CLASSIFICATION_TYPE":"U","NORAD_CAT_ID":58864,"ELEMENT_SET_NO":999,"REV_AT_EPOCH":9633,"BSTAR":0.00014045785,"MEAN_MOTION_DOT":3.606e-5,"MEAN_MOTION_DDOT":0},{"OBJECT_NAME":"STARLINK-31223","OBJECT_ID":"2024-019N","EPOCH":"2025-10-12T06:31:29.589600","MEAN_MOTION":15.27591543,"ECCENTRICITY":9.547e-5,"INCLINATION":42.9997,"RA_OF_ASC_NODE":7.1348,"ARG_OF_PERICENTER":337.7724,"MEAN_ANOMALY":22.3086,"EPHEMERIS_TYPE":0,"CLASSIFICATION_TYPE":"U","NORAD_CAT_ID":58865,"ELEMENT_SET_NO":999,"REV_AT_EPOCH":9636,"BSTAR":-4.1609436e-5,"MEAN_MOTION_DOT":-1.407e-5,"MEAN_MOTION_DDOT":0},{"OBJECT_NAME":"STARLINK-31219","OBJECT_ID":"2024-019P","EPOCH":"2025-10-12T05:56:20.089536","MEAN_MOTION":15.27592548,"ECCENTRICITY":0.00019901,"INCLINATION":43.0009,"RA_OF_ASC_NODE":6.9467,"ARG_OF_PERICENTER":298.6055,"MEAN_ANOMALY":61.4597,"EPHEMERIS_TYPE":0,"CLASSIFICATION_TYPE":"U","NORAD_CAT_ID":58866,"ELEMENT_SET_NO":999,"REV_AT_EPOCH":9636,"BSTAR":4.186939e-5,"MEAN_MOTION_DOT":8.9e-6,"MEAN_MOTION_DDOT":0},{"OBJECT_NAME":"STARLINK-31198","OBJECT_ID":"2024-019Q","EPOCH":"2025-10-11T22:18:29.971584","MEAN_MOTION":15.2758493,"ECCENTRICITY":9.714e-5,"INCLINATION":42.9983,"RA_OF_ASC_NODE":8.8352,"ARG_OF_PERICENTER":269.4073,"MEAN_ANOMALY":90.6667,"EPHEMERIS_TYPE":0,"CLASSIFICATION_TYPE":"U","NORAD_CAT_ID":58867,"ELEMENT_SET_NO":999,"REV_AT_EPOCH":9631,"BSTAR":2.6474705e-5,"MEAN_MOTION_DOT":4.67e-6,"MEAN_MOTION_DDOT":0}]
